start=new Date('2022-03-20T00:00:00.000Z').valueOf();
sats=[{"OBJECT_ID":"2021-036AW","SEMIMAJOR_AXIS":"6925.303","GP_ID":"199116584","REV_AT_EPOCH":"4993","INCLINATION":"53.0550","RA_OF_ASC_NODE":"136.5073","MEAN_ANOMALY":"296.9589","MEAN_MOTION_DOT":"0.00002840","PERIAPSIS":"546.101","EPOCH":"2022-03-19T10:42:20.921472","ARG_OF_PERICENTER":"63.1557","BSTAR":"0.00020942000000","TIME_SYSTEM":"UTC","CENTER_NAME":"EARTH","DECAY_DATE":null,"MEAN_MOTION_DDOT":"0.0000000000000","COUNTRY_CODE":"US","CLASSIFICATION_TYPE":"U","OBJECT_NAME":"STARLINK-2029","PERIOD":"95.591","RCS_SIZE":"LARGE","FILE":"3365243","OBJECT_TYPE":"PAYLOAD","TLE_LINE1":"1 48320U 21036AW  22078.44607548  .00002840  00000-0  20942-3 0  9990","NORAD_CAT_ID":"48320","APOAPSIS":"548.236","ELEMENT_SET_NO":"999","LAUNCH_DATE":"2021-04-29","MEAN_MOTION":"15.06414731","MEAN_ELEMENT_THEORY":"SGP4","TLE_LINE2":"2 48320  53.0550 136.5073 0001541  63.1557 296.9589 15.06414731 49935","EPHEMERIS_TYPE":"0","SITE":"AFETR","REF_FRAME":"TEME","ECCENTRICITY":"0.00015410"},{"GP_ID":"199186480","SEMIMAJOR_AXIS":"6925.333","OBJECT_ID":"2021-036AX","ARG_OF_PERICENTER":"64.2590","EPOCH":"2022-03-19T13:48:06.850656","PERIAPSIS":"546.196","MEAN_MOTION_DOT":"0.00002453","MEAN_ANOMALY":"295.8548","RA_OF_ASC_NODE":"135.9176","INCLINATION":"53.0534","REV_AT_EPOCH":"4931","FILE":"3366144","OBJECT_TYPE":"PAYLOAD","RCS_SIZE":"LARGE","PERIOD":"95.592","OBJECT_NAME":"STARLINK-2457","CLASSIFICATION_TYPE":"U","DECAY_DATE":null,"COUNTRY_CODE":"US","MEAN_MOTION_DDOT":"0.0000000000000","CENTER_NAME":"EARTH","TIME_SYSTEM":"UTC","BSTAR":"0.00018347000000","ECCENTRICITY":"0.00014480","REF_FRAME":"TEME","SITE":"AFETR","EPHEMERIS_TYPE":"0","MEAN_ELEMENT_THEORY":"SGP4","TLE_LINE2":"2 48321  53.0534 135.9176 0001448  64.2590 295.8548 15.06404944 49310","LAUNCH_DATE":"2021-04-29","MEAN_MOTION":"15.06404944","APOAPSIS":"548.201","ELEMENT_SET_NO":"999","NORAD_CAT_ID":"48321","TLE_LINE1":"1 48321U 21036AX  22078.57507929  .00002453  00000-0  18347-3 0  9993"},{"PERIOD":"95.591","MEAN_MOTION_DDOT":"0.0000000000000","DECAY_DATE":null,"COUNTRY_CODE":"US","CLASSIFICATION_TYPE":"U","OBJECT_NAME":"STARLINK-2477","RCS_SIZE":"MEDIUM","FILE":"3365744","OBJECT_TYPE":"PAYLOAD","BSTAR":"0.00061433000000","CENTER_NAME":"EARTH","TIME_SYSTEM":"UTC","SITE":"AFETR","EPHEMERIS_TYPE":"0","ECCENTRICITY":"0.00017520","REF_FRAME":"TEME","TLE_LINE1":"1 48322U 21036AY  22078.57141176  .00008885  00000-0  61433-3 0  9991","NORAD_CAT_ID":"48322","TLE_LINE2":"2 48322  53.0534 135.9315 0001752  62.0907 298.0259 15.06417187 49319","MEAN_ELEMENT_THEORY":"SGP4","ELEMENT_SET_NO":"999","APOAPSIS":"548.374","MEAN_MOTION":"15.06417187","LAUNCH_DATE":"2021-04-29","SEMIMAJOR_AXIS":"6925.296","OBJECT_ID":"2021-036AY","GP_ID":"199150290","MEAN_ANOMALY":"298.0259","PERIAPSIS":"545.948","EPOCH":"2022-03-19T13:42:49.976064","ARG_OF_PERICENTER":"62.0907","MEAN_MOTION_DOT":"0.00008885","INCLINATION":"53.0534","REV_AT_EPOCH":"4931","RA_OF_ASC_NODE":"135.9315"},{"ARG_OF_PERICENTER":"52.0076","EPOCH":"2022-03-19T13:37:28.784928","PERIAPSIS":"545.989","MEAN_MOTION_DOT":"0.00001055","MEAN_ANOMALY":"308.1076","RA_OF_ASC_NODE":"135.9626","INCLINATION":"53.0535","REV_AT_EPOCH":"4931","GP_ID":"199150540","SEMIMAJOR_AXIS":"6925.377","OBJECT_ID":"2021-036AZ","ECCENTRICITY":"0.00018100","REF_FRAME":"TEME","SITE":"AFETR","EPHEMERIS_TYPE":"0","MEAN_ELEMENT_THEORY":"SGP4","TLE_LINE2":"2 48323  53.0535 135.9626 0001810  52.0076 308.1076 15.06390699 49315","LAUNCH_DATE":"2021-04-29","MEAN_MOTION":"15.06390699","ELEMENT_SET_NO":"999","APOAPSIS":"548.496","NORAD_CAT_ID":"48323","TLE_LINE1":"1 48323U 21036AZ  22078.56769427  .00001055  00000-0  89717-4 0  9994","OBJECT_TYPE":"PAYLOAD","FILE":"3365744","RCS_SIZE":"LARGE","PERIOD":"95.593","CLASSIFICATION_TYPE":"U","OBJECT_NAME":"STARLINK-2515","MEAN_MOTION_DDOT":"0.0000000000000","DECAY_DATE":null,"COUNTRY_CODE":"US","CENTER_NAME":"EARTH","TIME_SYSTEM":"UTC","BSTAR":"0.00008971700000"},{"SEMIMAJOR_AXIS":"6925.272","OBJECT_ID":"2021-036BA","GP_ID":"199151792","MEAN_ANOMALY":"290.8650","ARG_OF_PERICENTER":"69.2522","PERIAPSIS":"545.953","EPOCH":"2022-03-19T10:21:08.030016","MEAN_MOTION_DOT":"0.00009029","INCLINATION":"53.0513","REV_AT_EPOCH":"4928","RA_OF_ASC_NODE":"136.5760","PERIOD":"95.591","CLASSIFICATION_TYPE":"U","OBJECT_NAME":"STARLINK-2527","COUNTRY_CODE":"US","DECAY_DATE":null,"MEAN_MOTION_DDOT":"0.0000000000000","RCS_SIZE":"LARGE","FILE":"3365744","OBJECT_TYPE":"PAYLOAD","BSTAR":"0.00062383000000","CENTER_NAME":"EARTH","TIME_SYSTEM":"UTC","SITE":"AFETR","EPHEMERIS_TYPE":"0","ECCENTRICITY":"0.00017100","REF_FRAME":"TEME","NORAD_CAT_ID":"48324","TLE_LINE1":"1 48324U 21036BA  22078.43134294  .00009029  00000-0  62383-3 0  9997","TLE_LINE2":"2 48324  53.0513 136.5760 0001710  69.2522 290.8650 15.06424905 49282","MEAN_ELEMENT_THEORY":"SGP4","MEAN_MOTION":"15.06424905","LAUNCH_DATE":"2021-04-29","ELEMENT_SET_NO":"999","APOAPSIS":"548.321"},{"TLE_LINE1":"1 48325U 21036BB  22078.56033836  .00001179  00000-0  98041-4 0  9991","NORAD_CAT_ID":"48325","APOAPSIS":"548.249","ELEMENT_SET_NO":"999","MEAN_MOTION":"15.06399024","LAUNCH_DATE":"2021-04-29","TLE_LINE2":"2 48325  53.0554 136.0030 0001491  43.4910 316.6197 15.06399024 49314","MEAN_ELEMENT_THEORY":"SGP4","EPHEMERIS_TYPE":"0","SITE":"AFETR","REF_FRAME":"TEME","ECCENTRICITY":"0.00014910","BSTAR":"0.00009804100000","TIME_SYSTEM":"UTC","CENTER_NAME":"EARTH","DECAY_DATE":null,"COUNTRY_CODE":"US","MEAN_MOTION_DDOT":"0.0000000000000","CLASSIFICATION_TYPE":"U","OBJECT_NAME":"STARLINK-2495","PERIOD":"95.592","FILE":"3366144","OBJECT_TYPE":"PAYLOAD","RCS_SIZE":"LARGE","REV_AT_EPOCH":"4931","INCLINATION":"53.0554","RA_OF_ASC_NODE":"136.0030","MEAN_ANOMALY":"316.6197","MEAN_MOTION_DOT":"0.00001179","PERIAPSIS":"546.184","EPOCH":"2022-03-19T13:26:53.234304","ARG_OF_PERICENTER":"43.4910","OBJECT_ID":"2021-036BB","SEMIMAJOR_AXIS":"6925.352","GP_ID":"199185980"},{"NORAD_CAT_ID":"48326","TLE_LINE1":"1 48326U 21036BC  22078.55664583  .00005361  00000-0  37855-3 0  9992","TLE_LINE2":"2 48326  53.0537 136.0026 0001338  78.8080 281.3060 15.06395377 49315","MEAN_ELEMENT_THEORY":"SGP4","LAUNCH_DATE":"2021-04-29","MEAN_MOTION":"15.06395377","ELEMENT_SET_NO":"999","APOAPSIS":"548.154","SITE":"AFETR","EPHEMERIS_TYPE":"0","ECCENTRICITY":"0.00013380","REF_FRAME":"TEME","BSTAR":"0.00037855000000","CENTER_NAME":"EARTH","TIME_SYSTEM":"UTC","PERIOD":"95.592","CLASSIFICATION_TYPE":"U","OBJECT_NAME":"STARLINK-2498","COUNTRY_CODE":"US","DECAY_DATE":null,"MEAN_MOTION_DDOT":"0.0000000000000","RCS_SIZE":"LARGE","FILE":"3365744","OBJECT_TYPE":"PAYLOAD","INCLINATION":"53.0537","REV_AT_EPOCH":"4931","RA_OF_ASC_NODE":"136.0026","MEAN_ANOMALY":"281.3060","ARG_OF_PERICENTER":"78.8080","EPOCH":"2022-03-19T13:21:34.199712","PERIAPSIS":"546.301","MEAN_MOTION_DOT":"0.00005361","SEMIMAJOR_AXIS":"6925.363","OBJECT_ID":"2021-036BC","GP_ID":"199150791"},{"REV_AT_EPOCH":"4931","INCLINATION":"53.0536","RA_OF_ASC_NODE":"136.0152","MEAN_ANOMALY":"296.1025","MEAN_MOTION_DOT":"0.00001885","ARG_OF_PERICENTER":"64.0132","EPOCH":"2022-03-19T13:16:15.260160","PERIAPSIS":"546.073","OBJECT_ID":"2021-036BD","SEMIMAJOR_AXIS":"6925.338","GP_ID":"199151041","NORAD_CAT_ID":"48327","TLE_LINE1":"1 48327U 21036BD  22078.55295440  .00001885  00000-0  14543-3 0  9991","LAUNCH_DATE":"2021-04-29","MEAN_MOTION":"15.06403437","ELEMENT_SET_NO":"999","APOAPSIS":"548.333","TLE_LINE2":"2 48327  53.0536 136.0152 0001632  64.0132 296.1025 15.06403437 49319","MEAN_ELEMENT_THEORY":"SGP4","EPHEMERIS_TYPE":"0","SITE":"AFETR","REF_FRAME":"TEME","ECCENTRICITY":"0.00016320","BSTAR":"0.00014543000000","TIME_SYSTEM":"UTC","CENTER_NAME":"EARTH","OBJECT_NAME":"STARLINK-2502","CLASSIFICATION_TYPE":"U","COUNTRY_CODE":"US","DECAY_DATE":null,"MEAN_MOTION_DDOT":"0.0000000000000","PERIOD":"95.592","OBJECT_TYPE":"PAYLOAD","FILE":"3365744","RCS_SIZE":"LARGE"},{"PERIOD":"95.592","CLASSIFICATION_TYPE":"U","OBJECT_NAME":"STARLINK-2504","DECAY_DATE":null,"COUNTRY_CODE":"US","MEAN_MOTION_DDOT":"0.0000000000000","FILE":"3365744","RCS_SIZE":"LARGE","OBJECT_TYPE":"PAYLOAD","BSTAR":"0.00013222000000","CENTER_NAME":"EARTH","TIME_SYSTEM":"UTC","SITE":"AFETR","EPHEMERIS_TYPE":"0","ECCENTRICITY":"0.00016520","REF_FRAME":"TEME","NORAD_CAT_ID":"48328","TLE_LINE1":"1 48328U 21036BE  22078.54928074  .00001688  00000-0  13222-3 0  9991","TLE_LINE2":"2 48328  53.0549 136.0368 0001652  67.4649 292.6515 15.06399125 49318","MEAN_ELEMENT_THEORY":"SGP4","LAUNCH_DATE":"2021-04-29","MEAN_MOTION":"15.06399125","ELEMENT_SET_NO":"999","APOAPSIS":"548.360","SEMIMAJOR_AXIS":"6925.351","OBJECT_ID":"2021-036BE","GP_ID":"199151292","MEAN_ANOMALY":"292.6515","ARG_OF_PERICENTER":"67.4649","EPOCH":"2022-03-19T13:10:57.855936","PERIAPSIS":"546.072","MEAN_MOTION_DOT":"0.00001688","INCLINATION":"53.0549","REV_AT_EPOCH":"4931","RA_OF_ASC_NODE":"136.0368"},{"OBJECT_ID":"2021-036BF","SEMIMAJOR_AXIS":"6925.172","GP_ID":"199151543","MEAN_ANOMALY":"316.4409","MEAN_MOTION_DOT":"0.00028602","ARG_OF_PERICENTER":"43.6693","EPOCH":"2022-03-19T11:30:06.609024","PERIAPSIS":"546.042","REV_AT_EPOCH":"4930","INCLINATION":"53.0538","RA_OF_ASC_NODE":"136.3632","CLASSIFICATION_TYPE":"U","OBJECT_NAME":"STARLINK-2510","COUNTRY_CODE":"US","DECAY_DATE":null,"MEAN_MOTION_DDOT":"0.0000000000000","PERIOD":"95.588","FILE":"3365744","OBJECT_TYPE":"PAYLOAD","RCS_SIZE":"LARGE","BSTAR":"0.00192830000000","TIME_SYSTEM":"UTC","CENTER_NAME":"EARTH","EPHEMERIS_TYPE":"0","SITE":"AFETR","REF_FRAME":"TEME","ECCENTRICITY":"0.00014370","NORAD_CAT_ID":"48329","TLE_LINE1":"1 48329U 21036BF  22078.47924316  .00028602  00000-0  19283-2 0  9996","MEAN_MOTION":"15.06457472","LAUNCH_DATE":"2021-04-29","ELEMENT_SET_NO":"999","APOAPSIS":"548.033","MEAN_ELEMENT_THEORY":"SGP4","TLE_LINE2":"2 48329  53.0538 136.3632 0001437  43.6693 316.4409 15.06457472 49306"}];
